[{"OBJECT_NAME":"NEOSSAT","OBJECT_ID":"2013-009D","EPOCH":"2026-03-09T11:41:06.061344","MEAN_MOTION":14.35785569,"ECCENTRICITY":0.00110325,"INCLINATION":98.4141,"RA_OF_ASC_NODE":250.8974,"ARG_OF_PERICENTER":177.9575,"MEAN_ANOMALY":182.1658,"EPHEMERIS_TYPE":0,"CLASSIFICATION_TYPE":"U","NORAD_CAT_ID":39089,"ELEMENT_SET_NO":999,"REV_AT_EPOCH":68243,"BSTAR":0.00010834728,"MEAN_MOTION_DOT":2.71e-6,"MEAN_MOTION_DDOT":0},{"OBJECT_NAME":"SL-8 R\/B","OBJECT_ID":"1975-112B","EPOCH":"2026-03-09T22:05:26.016864","MEAN_MOTION":14.38203886,"ECCENTRICITY":0.00144297,"INCLINATION":74.0629,"RA_OF_ASC_NODE":18.4872,"ARG_OF_PERICENTER":111.679,"MEAN_ANOMALY":248.5902,"EPHEMERIS_TYPE":0,"CLASSIFICATION_TYPE":"U","NORAD_CAT_ID":8459,"ELEMENT_SET_NO":999,"REV_AT_EPOCH":63190,"BSTAR":0.00011399235,"MEAN_MOTION_DOT":3.21e-6,"MEAN_MOTION_DDOT":0}]
